[{"OBJECT_NAME":"TIANQI-20","OBJECT_ID":"2025-105D","EPOCH":"2026-03-09T21:45:43.775424","MEAN_MOTION":13.99100887,"ECCENTRICITY":0.00114132,"INCLINATION":44.9846,"RA_OF_ASC_NODE":103.7214,"ARG_OF_PERICENTER":272.0417,"MEAN_ANOMALY":87.9108,"EPHEMERIS_TYPE":0,"CLASSIFICATION_TYPE":"U","NORAD_CAT_ID":64061,"ELEMENT_SET_NO":999,"REV_AT_EPOCH":4130,"BSTAR":0.00015588372,"MEAN_MOTION_DOT":9.9e-7,"MEAN_MOTION_DDOT":0},{"OBJECT_NAME":"CZ-6A DEB","OBJECT_ID":"2024-140JJ","EPOCH":"2026-03-09T14:34:33.901248","MEAN_MOTION":14.14201061,"ECCENTRICITY":0.0073504,"INCLINATION":89.0137,"RA_OF_ASC_NODE":287.7605,"ARG_OF_PERICENTER":158.6966,"MEAN_ANOMALY":201.7309,"EPHEMERIS_TYPE":0,"CLASSIFICATION_TYPE":"U","NORAD_CAT_ID":60855,"ELEMENT_SET_NO":999,"REV_AT_EPOCH":8084,"BSTAR":0.0004703,"MEAN_MOTION_DOT":9.34e-6,"MEAN_MOTION_DDOT":0}]
